[{"OBJECT_NAME":"KINEIS-3B","OBJECT_ID":"2024-172E","EPOCH":"2026-03-09T17:21:30.663648","MEAN_MOTION":14.72290819,"ECCENTRICITY":0.00034024,"INCLINATION":98.028,"RA_OF_ASC_NODE":159.8522,"ARG_OF_PERICENTER":61.18,"MEAN_ANOMALY":298.9749,"EPHEMERIS_TYPE":0,"CLASSIFICATION_TYPE":"U","NORAD_CAT_ID":61224,"ELEMENT_SET_NO":999,"REV_AT_EPOCH":7871,"BSTAR":0.00046023739,"MEAN_MOTION_DOT":2.859e-5,"MEAN_MOTION_DDOT":0},{"OBJECT_NAME":"FENGYUN 1C DEB","OBJECT_ID":"1999-025ESZ","EPOCH":"2026-03-09T06:55:18.758784","MEAN_MOTION":14.18552494,"ECCENTRICITY":0.0265717,"INCLINATION":98.0483,"RA_OF_ASC_NODE":94.9001,"ARG_OF_PERICENTER":121.3246,"MEAN_ANOMALY":241.4236,"EPHEMERIS_TYPE":0,"CLASSIFICATION_TYPE":"U","NORAD_CAT_ID":38514,"ELEMENT_SET_NO":999,"REV_AT_EPOCH":89222,"BSTAR":0.0020350981,"MEAN_MOTION_DOT":5.946e-5,"MEAN_MOTION_DDOT":0}]
